BEESAT-4                
1 41619U 16040W   22185.88922855  .00009161  00000+0  30291-3 0  9991
2 41619  97.2150 236.0558 0010762  62.9642 297.2697 15.31516014323390
CAS-2T & KS-1Q          
1 41847U 16066G   22185.73158763  .00000691  00000+0  11265-3 0  9994
2 41847  98.5501 250.3844 0364333 158.0452 203.6807 14.38610765296832
NAYIF-1 (EO-88)         
1 42017U 17008BX  22185.71054915  .00011136  00000+0  32927-3 0  9997
2 42017  97.2673 251.5781 0005742 165.4579 194.6831 15.35071523299727
ZHUHAI-1 02 (CAS-4B)    
1 42759U 17034B   22185.62964817  .00001412  00000+0  93624-4 0  9998
2 42759  43.0172 238.0218 0008621  28.2285 107.1715 15.12009741278957
ZHUHAI-1 01 (CAS-4A)    
1 42761U 17034D   22185.86869575  .00001555  00000+0  10158-3 0  9990
2 42761  43.0173 235.4731 0009036  31.5067 137.2403 15.12097021278998
MAX VALIER SAT          
1 42778U 17036P   22185.88408830  .00004868  00000+0  18492-3 0  9994
2 42778  97.2034 226.3875 0008750 261.0883  98.9367 15.27228654279569
RADFXSAT (FOX-1B)       
1 43017U 17073E   22185.93355745  .00002010  00000+0  15392-3 0  9997
2 43017  97.6735  79.4120 0249510 130.3699 231.9592 14.81475360249701
FOX-1D (AO-92)          
1 43137U 18004AC  22185.89008784  .00005912  00000+0  20830-3 0  9995
2 43137  97.3676 260.8920 0005939 305.5422  54.5264 15.29654648249014
DIWATA-2B               
1 43678U 18084H   22185.81726794  .00000751  00000+0  79500-4 0  9998
2 43678  97.9738 319.2883 0008758 222.2444 137.8089 14.92197313200441
ES'HAIL 2               
1 43700U 18090A   22185.85813411  .00000155  00000+0  00000+0 0  9990
2 43700   0.0183  37.3152 0001100  81.1803 139.0659  1.00270413 13209
FOX-1CLIFF (AO-95)      
1 43770U 18099N   22185.90844273  .00001128  00000+0  10414-3 0  9997
2 43770  97.6196 251.8054 0013489 212.1338 147.9063 14.96498248195629
ITASAT 1                
1 43786U 18099AE  22185.69949245  .00000640  00000+0  61086-4 0  9995
2 43786  97.6228 252.5302 0014134 205.7262 154.3258 14.96638396195637
JY1SAT (JO-97)          
1 43803U 18099AX  22185.91201848  .00001322  00000+0  11927-3 0  9996
2 43803  97.6182 252.4970 0014300 203.9905 156.0653 14.97143374195686
UWE-4                   
1 43880U 18111E   22185.69877339  .00001919  00000+0  16631-3 0  9994
2 43880  97.6685  91.7092 0009564 262.9065  97.1070 14.98240349192288
NEXUS (FO-99)           
1 43937U 19003F   22185.81783566  .00008132  00000+0  27163-3 0  9996
2 43937  97.1287 218.4949 0022532  92.7677 267.6145 15.31025541192630
PSAT2 (NO-104)          
1 44354U 19036R   22185.95303848  .00045893 -56811-5  39057-3 0  9990
2 44354  28.5253  56.8453 0222938 168.1608 192.4343 15.41786872167384
JAISAT-1                
1 44419U 19038F   22185.91169712  .00004825  00000+0  24269-3 0  9991
2 44419  97.6368 156.1774 0021241  73.1035 287.2525 15.17528208165702
DUCHIFAT-3              
1 44854U 19089C   22185.82560451  .00001710  00000+0  13694-3 0  9995
2 44854  36.9686 357.3502 0009046 354.6390 139.3591 15.01166522140543
CAS-6 (TO-108)          
1 44881U 19093C   22185.93368302  .00000289  00000+0  43338-4 0  9992
2 44881  97.8930 264.8925 0016153 126.0743 234.1963 14.81744544137368
RS-44 & BREEZE-KM R/B   
1 44909U 19096E   22185.78157087  .00000006  00000+0 -10775-4 0  9992
2 44909  82.5200 218.7636 0216173 279.2849  78.3865 12.79713772117720
ORBITAL FACTORY 2 (OF-2)
1 45113U 19071C   22185.82326861  .00018328  00000+0  37480-3 0  9992
2 45113  51.6393 333.8543 0009674 236.0048 124.0021 15.46138830136066
HUSKYSAT-1 (HO-107)     
1 45119U 19071J   22185.71051029  .00015754  00000+0  33481-3 0  9994
2 45119  51.6393 334.5749 0009406 231.4058 128.6087 15.45130866136030
BY70-2                  
1 45857U 20042B   22185.93812067  .00003573  00000+0  47888-3 0  9996
2 45857  97.9556 262.6128 0011813  68.1332 292.1122 14.79980160108043
SALSAT                  
1 46495U 20068K   22185.85400200  .00001720  00000+0  12684-3 0  9994
2 46495  97.7300 127.1601 0015596 214.8733 145.1472 15.04568368 96801
BY70-3                  
1 46839U 20079N   22185.89851367  .00013216  00000+0  30580-3 0  9994
2 46839  97.1973 257.7706 0003764 261.2481 215.5721 15.42586102 92936
RADFXSAT-2 (AO-109)     
1 47311U 21002C   22185.83842972  .00004718  00000+0  19475-3 0  9990
2 47311  60.6863 296.7912 0019503 351.9742   8.1031 15.25512219 81119
UVSQ-SAT                
1 47438U 21006AB  22185.90599478  .00003894  00000+0  20679-3 0  9994
2 47438  97.4355 244.5586 0011257 206.5787 153.4870 15.15849333 79923
DIY-1 (ARDUIQUBE)       
1 47963U 21022AH  22185.66588100  .00010702  00000+0  59204-3 0  9990
2 47963  97.5305  86.8285 0019214  74.5293 285.8059 15.13881261 69552
XW-3 (CAS-9)            
1 50466U 21131B   22185.90909085  .00000025  00000+0  22749-4 0  9991
2 50466  98.5804 263.1548 0005932  98.6386 261.5473 14.38504886 27425
TEVEL-3                 
1 50988U 22002E   22185.87865034  .00003351  00000+0  18498-3 0  9999
2 50988  97.4808 252.5709 0009571  14.7598  98.2462 15.14591152 26052
TEVEL-8                 
1 50989U 22002F   22185.88499375  .00003293  00000+0  18210-3 0  9999
2 50989  97.4819 252.5956 0009462  13.9162 102.5837 15.14539029 26056
TEVEL-5                 
1 50998U 22002Q   22185.89483810  .00003477  00000+0  18916-3 0  9994
2 50998  97.4801 252.6854 0011016   9.0432 108.7239 15.15070363 26066
TEVEL-6                 
1 50999U 22002R   22185.89444530  .00003488  00000+0  18975-3 0  9998
2 50999  97.4801 252.6845 0010920   8.7127 109.0565 15.15075153 26065
TEVEL-1                 
1 51013U 22002AF  22185.88110248  .00003319  00000+0  18336-3 0  9995
2 51013  97.4796 252.5557 0009539  14.0759  98.7949 15.14566745 26050
TEVEL-7                 
1 51062U 22002CG  22185.88543150  .00003314  00000+0  18328-3 0  9997
2 51062  97.4812 252.5839 0009584  13.0761  98.1257 15.14529391 26050
TEVEL-4                 
1 51063U 22002CH  22185.88588984  .00003279  00000+0  18144-3 0  9998
2 51063  97.4812 252.5817 0009585  13.4796  97.1898 15.14521167 26053
TEVEL-2                 
1 51069U 22002CP  22185.87972373  .00003353  00000+0  18508-3 0  9999
2 51069  97.4806 252.5605 0009564  14.0269  98.9072 15.14583720 26052
